Origin Time       
Lat.              
Long.             
Depth. (km)       
Mag.              
Station Code      KGS036
Station Lat.      31.8360
Station Long.     129.8678
Station Height(m) 6
Record Time       2016/05/07 18:16:36
Sampling Freq(Hz) 100Hz
Duration Time(s)  60
Dir.              N-S
Scale Factor      3920(gal)/6182761
Max. Acc. (gal)   5.175
Last Correction   2016/05/07 18:16:21
Memo.             
[...]
   -5926    -6033    -6160    -6246    -6320    -6419    -6382    -6234 
   -6185    -6163    -6102    -6154    -6213    -6087    -5969    -5985 
   -6000    -6077    -6299    -6492    -6534    -6431    -6216    -5984 
   -5830    -5788    -5824    -5797    -5656    -5528    -5446    -5347 
   -5281    -5339    -5531    -5770    -6003    -6202    -6292    -6346 
   -6425    -6424    -6375    -6305    -6097    -5878    -5913    -6183 
   -6464    -6605    -6601    -6425    -6099    -5899    -5945    -6039 
   -6196    -6464    -6565    -6333    -5891    -5490    -5387    -5470 
   -5470    -5512    -5691    -5791    -5787    -5753    -5631    -5533 
   -5520    -5426    -5443    -5808    -6153    -6165    -6044    -5963 
   -5931    -6013    -6277    -6669    -7027    -7243    -7341    -7305 
   -7057    -6696    -6437    -6324    -6236    -6075    -5896    -5672 
   -5268    -4919    -4939    -5153    -5368    -5627    -5884    -6080 
   -6162    -5987    -5660    -5538    -5654    -5704    -5653    -5613 
   -5481    -5358    -5510    -5755    -5868    -6119    -6627    -7089 
   -7344    -7388    -7186    -6894    -6674    -6533    -6513    -6544 
   -6461    -6307    -6094    -5765    -5533    -5515    -5482    -5433 
   -5587    -5860    -6028    -6045    -5974    -5859    -5648    -5379 
   -5219    -5189    -5198    -5240    -5368    -5653    -6010    -6215 
   -6226    -6173    -6170    -6322    -6649    -6958    -7051    -6945 
   -6768    -6558    -6258    -5978    -5963    -6192    -6368    -6326 
   -6217    -6196    -6162    -6088    -6092    -6085    -5913    -5690 
   -5517    -5310    -5105    -4971    -4829    -4867    -5262    -5609 
   -5635    -5665    -5881    -6091    -6206    -6315    -6492    -6706 
   -6846    -6888    -6881    -6769    -6520    -6254    -6085    -6001 
   -5974    -6049    -6153    -6141    -6137    -6278    -6362    -6292 
   -6274    -6304    -6170    -5867    -5526    -5268    -5182    -5284 
   -5554    -5844    -5909    -5790    -5681    -5588    -5526    -5545 
   -5623    -5801    -6057    -6237    -6314    -6362    -6359    -6284 
   -6231    -6257    -6303    -6331    -6399    -6568    -6742    -6760 
   -6650    -6574    -6523    -6352    -6088    -5862    -5664    -5442 
   -5217    -5117    -5265    -5516    -5687    -5855    -6082    -6216 
   -6137    -6010    -6007    -5970    -5777    -5668    -5788    -5913 
   -5906    -5953    -6133    -6220    -6109    -6012    -6047    -6128 
   -6162    -6103    -6048    -6110    -6203    -6265    -6364    -6472 
   -6494    -6426    -6330    -6241    -6206    -6291    -6350    -6218 
   -6025    -5924    -5879    -5857    -5836    -5779    -5750    -5845 
   -5979    -5910    -5558    -5183    -5104    -5370    -5769    -6044 
   -6068    -5897    -5693    -5625    -5794    -6125    -6431    -6613 
   -6617    -6393    -6103    -6019    -6120    -6223    -6346    -6519 
   -6596    -6501    -6357    -6265    -6157    -5940    -5695    -5583 
   -5649    -5766    -5783    -5709    -5648    -5617    -5590    -5595 
   -5737    -6047    -6322    -6391    -6375    -6389    -6388    -6358 
   -6271    -6035    -5696    -5469    -5490    -5676    -5866    -5947 
   -5935    -5976    -6144    -6352    -6478    -6445    -6352    -6357 
   -6393    -6359    -6303    -6222    -6085    -5938    -5851    -5856 
   -5910    -5941    -5844    -5647    -5589    -5709    -5812    -5858 
   -5912    -5973    -6070    -6185    -6160    -5929    -5674    -5570 
   -5568    -5632    -5813    -6019    -6153    -6221    -6198    -6166 
   -6231    -6330    -6444    -6576    -6572    -6392    -6206    -6095 
   -6044    -6091    -6204    -6240    -6164    -6092    -6082    -6042 
   -5921    -5821    -5817    -5827    -5754    -5674    -5680    -5716 
   -5748    -5783    -5747    -5698    -5792    -5904    -5868    -5830 
   -5887    -5915    -5889    -5897    -5957    -6032    -6126    -6298 
   -6545    -6764    -6807    -6612    -6330    -6156    -6070    -6000 
   -6033    -6179    -6328    -6440    -6434    -6291    -6180    -6086 
   -5896    -5671    -5459    -5330    -5382    -5492    -5553    -5667 
   -5833    -5931    -5981    -6099    -6285    -6384    -6307    -6140 
   -5996    -5912    -5901    -5953    -6024    -6114    -6235    -6293 
   -6205    -6031    -5859    -5730    -5664    -5664    -5703    -5763 
   -5861    -5961    -5976    -5937    -5950    -6054    -6184    -6271 
   -6381    -6585    -6787    -6913    -6927    -6783    -6579    -6387 
   -6132    -5903    -5864    -5903    -5790    -5527    -5310    -5211 
   -5154    -5147    -5231    -5390    -5589    -5730    -5760    -5754 
   -5793    -5988    -6324    -6504    -6371    -6121    -5946    -5859 
   -5843    -5979    -6316    -6709    -6961    -7042    -7066    -7070 
   -6904    -6507    -6058    -5707    -5523    -5590    -5812    -5890 
   -5662    -5296    -5040    -5003    -5180    -5483    -5819    -6093 
   -6152    -6037    -6002    -6117    -6228    -6209    -6097    -6032 
   -6053    -6091    -6166    -6302    -6407    -6427    -6478    -6669 
   -6867    -6812    -6516    -6207    -6004    -5908    -5892    -5886 
   -5878    -5905    -5904    -5787    -5590    -5442    -5431    -5505 
   -5558    -5603    -5702    -5852    -5993    -6015    -5908    -5851 
   -5963    -6151    -6266    -6265    -6176    -6068    -6013    -6032 
   -6106    -6238    -6451    -6679    -6720    -6482    -6178    -6078 
   -6210    -6383    -6392    -6214    -5996    -5819    -5693    -5671 
   -5729    -5774    -5805    -5857    -5894    -5857    -5748    -5630 
   -5545    -5464    -5376    -5353    -5409    -5468    -5502    -5570 
   -5759    -6077    -6413    -6685    -6920    -7104    -7170    -7122 
   -7002    -6830    -6644    -6488    -6339    -6163    -5999    -5873 
   -5750    -5614    -5477    -5363    -5341    -5421    -5485    -5468 
   -5445    -5467    -5485    -5527    -5725    -6078    -6391    -6524 
   -6486    -6303    -6045    -5864    -5870    -6045    -6243    -6343 
   -6394    -6479    -6564    -6586    -6555    -6526    -6501    -6378 
   -6113    -5857    -5718    -5610    -5496    -5424    -5389    -5392 
   -5482    -5644    -5774    -5815    -5817    -5857    -5936    -5986 
   -6002    -6077    -6232    -6342    -6369    -6437    -6558    -6540 
   -6346    -6182    -6172    -6239    -6305    -6377    -6435    -6388 
   -6252    -6121    -5967    -5748    -5532    -5409    -5439    -5552 
   -5599    -5601    -5676    -5804    -5897    -5941    -5973    -5993 
   -5988    -5989    -6011    -6046    -6114    -6175    -6146    -6075 
   -6039    -6005    -5977    -6050    -6258    -6477    -6552    -6494 
   -6364    -6148    -5959    -5957    -6068    -6134    -6162    -6172 
   -6135    -6112    -6152    -6185    -6157    -6097    -6031    -5912 
   -5702    -5450    -5231    -5127    -5190    -5392    -5663    -5921 
   -6030    -5929    -5772    -5756    -5890    -6044    -6164    -6295 
   -6461    -6619    -6704    -6674    -6572    -6457    -6342    -6262 
   -6225    -6154    -6022    -5906    -5893    -5995    -6115    -6138 
   -6051    -5920    -5839    -5890    -6025    -6077    -5974    -5840 
   -5769    -5725    -5706    -5740    -5792    -5799    -5767    -5778 
   -5858    -5939    -5972    -5951    -5899    -5879    -5918    -5989 
   -6056    -6066    -6011    -5948    -5983    -6180    -6440    -6634 
   -6748    -6813    -6802    -6669    -6484    -6377    -6362    -6323 
   -6189    -6057    -5981    -5835    -5550    -5274    -5144    -5115 
   -5186    -5418    -5699    -5850    -5849    -5823    -5860    -5878 
   -5852    -5925    -6104    -6226    -6225    -6173    -6144    -6107 
   -6080    -6191    -6402    -6531    -6524    -6412    -6226    -6019 
   -5829    -5698    -5704    -5853    -6035    -6169    -6268    -6316 
   -6279    -6197    -6130    -6076    -6061    -6127    -6203    -6209 
   -6172    -6149    -6167    -6175    -6104    -5987    -5882    -5782 
   -5670    -5570    -5544    -5622    -5739    -5795    -5816    -5896 
   -5983    -5941    -5767    -5620    -5648    -5814    -5954    -6009 
   -6053    -6118    -6190    -6256    -6312    -6412    -6573    -6672 
   -6661    -6671    -6713    -6637    -6425    -6212    -6052    -5907 
   -5757    -5644    -5615    -5599    -5507    -5401    -5366    -5396 
   -5494    -5678    -5881    -6002    -6020    -6020    -6078    -6147 
   -6164    -6143    -6048    -5870    -5725    -5720    -5840    -5969 
   -6035    -6127    -6315    -6500    -6596    -6601    -6519    -6382 
   -6252    -6180    -6195    -6220    -6156    -6085    -6071    -6024 
   -5991    -6070    -6100    -5961    -5750    -5498    -5256    -5210 
   -5373    -5546    -5670    -5835    -6015    -6104    -6103    -6091 
   -6112    -6156    -6187    -6194    -6208    -6254    -6306    -6330 
   -6341    -6347    -6314    -6253    -6216    -6182    -6105    -6039 
   -6055    -6130    -6202    -6241    -6217    -6099    -5915    -5754 
   -5680    -5691    -5742    -5822    -5910    -5932    -5880    -5838 
   -5854    -5899    -5935    -5986    -6048    -6055    -6034    -6027 
   -5949    -5799    -5746    -5883    -6090    -6218    -6270    -6325 
   -6350    -6249    -6068    -5981    -6040    -6125    -6144    -6128 
   -6087    -5997    -5911    -5896    -5920    -5918    -5898    -5905 
   -5932    -5949    -5973    -6001    -6011    -6049    -6123    -6126 
   -6049    -6023    -6085    -6134    -6106    -6037    -5991    -5967 
   -5919    -5872    -5895    -5990    -6093    -6140    -6131    -6086 
   -5980    -5821    -5693    -5700    -5847    -6000    -6080    -6168 
   -6318    -6433    -6415    -6319    -6254    -6223    -6183    -6140 
   -6122    -6128    -6083    -5930    -5774    -5744    -5805    -5860 
   -5857    -5798    -5733    -5705    -5727    -5766    -5802    -5870 
   -5938    -5923    -5878    -5907    -5978    -6043    -6154    -6324 
   -6475    -6545    -6504    -6380    -6242    -6114    -6008    -5977 
   -6033    -6081    -6059    -6046    -6092    -6130    -6144    -6110 
   -5981    -5856    -5833    -5825    -5782    -5764    -5774    -5782 
   -5803    -5836    -5853    -5828    -5764    -5716    -5746    -5849 
   -5953    -6032    -6105    -6146    -6159    -6204    -6283    -6326 
   -6311    -6322    -6387    -6411    -6346    -6260    -6169    -6002 
   -5782    -5684    -5781    -5931    -6021    -6083    -6116    -6083 
   -6022    -6003    -6040    -6066    -6024    -5981    -5992    -5996 
   -5972    -5959    -5925    -5784    -5583    -5521    -5643    -5786 
   -5889    -5982    -6041    -6093    -6179    -6243    -6218    -6099 
   -5948    -5865    -5876    -5937    -6011    -6094    -6206    -6325 
   -6400    -6408    -6352    -6247    -6112    -5995    -5981    -6057 
   -6100    -6046    -5901    -5703    -5554    -5540    -5647    -5819 
   -5947    -5964    -5967    -6006    -5991    -5914    -5859    -5862 
   -5890    -5874    -5822    -5805    -5800    -5740    -5655    -5645 
   -5781    -6004    -6163    -6222    -6291    -6432    -6582    -6668 
   -6670    -6612    -6546    -6537    -6587    -6595    -6510    -6402 
   -6340    -6351    -6406    -6393    -6266    -6130    -6058    -6034 
   -6027    -5992    -5889    -5714    -5489    -5258    -5095    -5038 
   -5040    -5096    -5272    -5517    -5676    -5697    -5656    -5645 
   -5673    -5657    -5601    -5574    -5525    -5416    -5394    -5604 
   -5994    -6385    -6671    -6905    -7157    -7368    -7435    -7367 
   -7261    -7137    -6902    -6539    -6214    -6032    -5882    -5710 
   -5651    -5759    -5872    -5845    -5730    -5645    -5612    -5619 
   -5683    -5747    -5735    -5768    -6039    -6485    -6863    -7076 
   -7209    -7307    -7306    -7190    -7040    -6857    -6494    -5905 
   -5251    -4691    -4293    -4092    -4110    -4294    -4455    -4477 
   -4533    -4860    -5489    -6249    -6905    -7393    -7794    -8064 
   -8117    -8039    -7956    -7781    -7386    -6992    -6929    -7087 
   -7157    -7108    -7116    -7211    -7117    -6609    -5863    -5125 
   -4386    -3606    -2946    -2585    -2463    -2395    -2388    -2621 
   -3176    -3915    -4519    -4771    -4817    -4891    -5073    -5440 
   -6061    -6859    -7646    -8208    -8539    -8885    -9299    -9601 
   -9861   -10264   -10623   -10648   -10372    -9906    -9238    -8424 
   -7633    -6997    -6427    -5650    -4625    -3665    -2983    -2503 
   -2227    -2316    -2703    -2961    -2702    -1939    -1007     -408 
    -534    -1314    -2404    -3595    -4785    -5929    -6994    -7815 
   -8291    -8551    -8690    -8631    -8249    -7568    -6830    -6244 
   -5873    -5842    -6361    -7449    -8746    -9720   -10062    -9873 
   -9566    -9503    -9633    -9560    -9028    -8115    -6971    -5639 
   -4212    -2978    -2301    -2321    -2811    -3384    -3835    -4142 
   -4197    -3920    -3573    -3534    -3870    -4314    -4517    -4277 
   -3678    -3077    -2939    -3527    -4698    -6170    -7814    -9433 
  -10705   -11535   -12049   -12315   -12356   -12171   -11631   -10568 
   -9138    -7804    -6801    -6026    -5400    -4947    -4738    -4780 
   -4728    -4173    -3252    -2377    -1624     -905     -357     -168 
    -254     -341     -446     -972    -2138    -3627    -4955    -5976 
   -6847    -7669    -8453    -9232    -9942   -10419   -10619   -10715 
  -10903   -11102   -10989   -10455    -9842    -9568    -9682    -9910 
  -10065   -10083    -9698    -8711    -7415    -6079    -4483    -2517 
    -627      703     1488     1981     2140     1678      592     -696 
   -1717    -2378    -2974    -3700    -4407    -4864    -5018    -5066 
   -5285    -5870    -6884    -8138    -9329   -10339   -11115   -11612 
  -11948   -12237   -12434   -12443   -12305   -12216   -12221   -12032 
  -11291    -9930    -8230    -6471    -4655    -2775    -1155     -172 
     172      173      187      402      531       41    -1062    -2229 
   -3085    -3628    -3988    -4328    -4796    -5400    -6087    -6856 
   -7681    -8494    -9216    -9703    -9942   -10157   -10396   -10447 
  -10248    -9952    -9645    -9249    -8647    -7822    -6895    -6000 
   -5207    -4575    -4156    -3930    -3953    -4281    -4589    -4448 
   -3886    -3283    -2928    -2854    -3044    -3499    -4033    -4369 
   -4504    -4685    -4990    -5302    -5673    -6315    -7261    -8234 
   -8833    -8943    -8839    -8762    -8700    -8547    -8196    -7590 
   -6788    -6022    -5609    -5655    -5937    -6274    -6739    -7300 
   -7570    -7282    -6669    -6185    -6063    -6116    -6026    -5810 
   -5744    -5871    -5934    -5710    -5254    -4773    -4310    -3810 
   -3441    -3436    -3730    -4037    -4151    -4158    -4283    -4552 
   -4825    -5016    -5109    -5074    -4874    -4599    -4473    -4668 
   -5306    -6452    -7889    -9178   -10006   -10289   -10138    -9798 
   -9479    -9229    -8974    -8631    -8137    -7500    -6894    -6487 
   -6182    -5838    -5552    -5361    -5111    -4785    -4449    -4032 
   -3524    -3081    -2817    -2721    -2777    -2950    -3093    -3127 
   -3255    -3765    -4623    -5495    -6159    -6624    -6993    -7346 
   -7665    -7929    -8181    -8426    -8661    -8960    -9277    -9394 
   -9225    -8998    -8945    -8992    -8960    -8796    -8420    -7652 
   -6494    -5348    -4639    -4259    -3724    -2829    -1813    -1050 
    -740     -819    -1062    -1271    -1494    -1974    -2739    -3497 
   -4082    -4659    -5445    -6497    -7687    -8817    -9790   -10531 
  -10882   -10816   -10577   -10426   -10335   -10092    -9667    -9137 
   -8506    -7829    -7189    -6594    -6066    -5602    -5162    -4752 
   -4312    -3731    -3115    -2655    -2385    -2331    -2520    -2832 
   -3160    -3534    -3933    -4268    -4601    -5077    -5687    -6246 
   -6640    -6962    -7367    -7859    -8300    -8605    -8868    -9223 
   -9603    -9780    -9648    -9319    -8939    -8520    -7976    -7256 
   -6403    -5539    -4816    -4280    -3832    -3397    -2982    -2605 
   -2311    -2164    -2228    -2572    -3208    -4007    -4784    -5465 
   -6056    -6536    -6893    -7150    -7366    -7645    -8029    -8406 
   -8581    -8475    -8241    -8033    -7793    -7459    -7089    -6726 
   -6335    -5854    -5270    -4683    -4256    -4065    -4052    -4143 
   -4318    -4570    -4869    -5164    -5456    -5826    -6303    -6783 
   -7113    -7226    -7183    -7081    -6959    -6785    -6551    -6362 
   -6287    -6274    -6264    -6246    -6248    -6266    -6263    -6197 
   -6052    -5880    -5692    -5419    -5073    -4742    -4494    -4352 
   -4347    -4520    -4795    -5026    -5235    -5526    -5846    -6092 
   -6295    -6517    -6730    -6924    -7145    -7402    -7638    -7733 
   -7636    -7469    -7316    -7076    -6701    -6266    -5829    -5452 
   -5208    -5089    -5048    -5052    -5053    -4999    -4903    -4871 
   -4971    -5164    -5376    -5535    -5681    -5975    -6440    -6865 
   -7040    -6976    -6867    -6804    -6695    -6536    -6438    -6473 
   -6655    -6848    -6833    -6604    -6336    -6163    -6117    -6114 
   -6048    -5939    -5805    -5574    -5253    -4957    -4798    -4825 
   -5015    -5300    -5565    -5711    -5832    -6125    -6564    -6899 
   -7001    -7011    -7097    -7215    -7181    -6984    -6817    -6800 
   -6862    -6844    -6652    -6336    -5980    -5604    -5186    -4756 
   -4415    -4215    -4115    -4054    -4033    -4118    -4371    -4746 
   -5100    -5334    -5467    -5608    -5796    -5950    -6067    -6297 
   -6752    -7374    -7988    -8413    -8631    -8770    -8850    -8788 
   -8597    -8331    -7947    -7421    -6829    -6217    -5581    -4979 
   -4478    -4120    -3950    -3958    -4039    -4103    -4133    -4111 
   -4042    -4032    -4182    -4482    -4810    -5037    -5207    -5419 
   -5677    -6001    -6388    -6750    -7044    -7291    -7526    -7716 
   -7821    -7891    -7978    -8106    -8257    -8349    -8338    -8210 
   -7922    -7431    -6740    -5997    -5399    -4932    -4498    -4137 
   -3871    -3649    -3495    -3455    -3498    -3616    -3843    -4162 
   -4503    -4832    -5142    -5414    -5706    -6131    -6651    -7154 
   -7594    -7905    -8011    -7958    -7837    -7689    -7570    -7522 
   -7501    -7459    -7350    -7101    -6701    -6245    -5837    -5535 
   -5346    -5251    -5204    -5115    -4960    -4847    -4828    -4871 
   -4986    -5172    -5365    -5500    -5569    -5601    -5662    -5821 
   -6026    -6168    -6241    -6265    -6205    -6112    -6115    -6198 
   -6276    -6355    -6449    -6552    -6662    -6715    -6646    -6499 
   -6346    -6226    -6206    -6300    -6403    -6422    -6395    -6406 
   -6446    -6419    -6274    -6089    -5968    -5900    -5812    -5686 
   -5584    -5541    -5466    -5322    -5227    -5243    -5296    -5353 
   -5426    -5471    -5459    -5438    -5440    -5498    -5637    -5794 
   -5909    -6029    -6218    -6426    -6568    -6643    -6692    -6711 
   -6686    -6665    -6682    -6673    -6606    -6519    -6438    -6397 
   -6412    -6427    -6438    -6482    -6509    -6458    -6344    -6182 
   -5989    -5810    -5667    -5547    -5424    -5277    -5141    -5082 
   -5127    -5203    -5218    -5168    -5100    -5070    -5125    -5232 
   -5359    -5526    -5744    -5998    -6255    -6489    -6659    -6736 
